HULIANWANG DIGUI-65     
1 65171U 25174H   26065.80789758  .00000044  00000+0  68293-4 0  9999
2 65171  86.4841 286.4897 0001235  89.5334 270.5942 13.24422415 27231
HULIANWANG DIGUI-66     
1 65172U 25174J   26065.80036832  .00000056  00000+0  96999-4 0  9995
2 65172  86.4876 286.5589 0001277  91.4577 268.6703 13.24422044 27237
HULIANWANG DIGUI-67     
1 65173U 25174K   26065.81550936  .00000042  00000+0  64480-4 0  9998
2 65173  86.4888 286.5876 0001273  89.8337 270.2943 13.24421712 27204
HULIANWANG DIGUI-68     
1 65228U 25178A   26065.83803147  .00000025  00000+0  24121-4 0  9999
2 65228  86.4944  48.0580 0002024  79.2426 280.8936 13.24423877 26761
HULIANWANG DIGUI-69     
1 65229U 25178B   26065.83079439  .00000027  00000+0  28105-4 0  9997
2 65229  86.4964  48.0956 0001969  80.7106 279.4251 13.24417665 26762
HULIANWANG DIGUI-70     
1 65230U 25178C   26065.82319462  .00000052  00000+0  88060-4 0  9995
2 65230  86.4903  47.9661 0002064  79.1540 280.9826 13.24418696 26769
HULIANWANG DIGUI-71     
1 65231U 25178D   26065.81561396  .00000048  00000+0  78846-4 0  9996
2 65231  86.4961  48.0838 0002025  80.4564 279.6798 13.24419519 26768
HULIANWANG DIGUI-72     
1 65232U 25178E   26065.80801610  .00000036  00000+0  49814-4 0  9992
2 65232  86.4944  48.0441 0002025  81.3421 278.7943 13.24419960 26764
HULIANWANG DIGUI-73     
1 65305U 25187A   26065.81796227 -.00000084  00000+0  86668-4 0  9993
2 65305  50.0038 213.0194 0001040 144.1205 215.9737 13.29342611 26081
HULIANWANG DIGUI-74     
1 65306U 25187B   26065.80123733 -.00000088  00000+0  77107-4 0  9991
2 65306  50.0081 212.9991 0001039 144.6587 215.4354 13.29343052 26089
HULIANWANG DIGUI-75     
1 65307U 25187C   26065.85977215 -.00000083  00000+0  87652-4 0  9990
2 65307  50.0072 212.6310 0001030 142.6668 217.4276 13.29342054 26098
HULIANWANG DIGUI-76     
1 65308U 25187D   26065.84325771 -.00000074  00000+0  10774-3 0  9994
2 65308  49.9997 213.0831 0001022 140.9323 219.1623 13.29339450 26085
HULIANWANG DIGUI-77     
1 65309U 25187E   26065.83475529 -.00000084  00000+0  86334-4 0  9998
2 65309  50.0031 213.0933 0001066 142.0988 217.9960 13.29341321 26089
HULIANWANG DIGUI-78     
1 65310U 25187F   26065.79298669 -.00000096  00000+0  60171-4 0  9997
2 65310  50.0097 212.9824 0001017 144.4043 215.6897 13.29341698 26085
HULIANWANG DIGUI-79     
1 65311U 25187G   26065.85130254 -.00000085  00000+0  83623-4 0  9995
2 65311  50.0027 213.1712 0001024 141.9872 218.1072 13.29343188 26087
HULIANWANG DIGUI-80     
1 65312U 25187H   26065.82637168 -.00000074  00000+0  10710-3 0  9993
2 65312  50.0017 213.0280 0001053 141.4148 218.6800 13.29341450 26083
