[{"OBJECT_NAME":"HULIANWANG DIGUI-65","OBJECT_ID":"2025-174H","EPOCH":"2026-03-06T19:23:22.350912","MEAN_MOTION":13.24422415,"ECCENTRICITY":0.0001235,"INCLINATION":86.4841,"RA_OF_ASC_NODE":286.4897,"ARG_OF_PERICENTER":89.5334,"MEAN_ANOMALY":270.5942,"EPHEMERIS_TYPE":0,"CLASSIFICATION_TYPE":"U","NORAD_CAT_ID":65171,"ELEMENT_SET_NO":999,"REV_AT_EPOCH":2723,"BSTAR":6.8293e-5,"MEAN_MOTION_DOT":4.4e-7,"MEAN_MOTION_DDOT":0},{"OBJECT_NAME":"HULIANWANG DIGUI-66","OBJECT_ID":"2025-174J","EPOCH":"2026-03-06T19:12:31.822848","MEAN_MOTION":13.24422044,"ECCENTRICITY":0.0001277,"INCLINATION":86.4876,"RA_OF_ASC_NODE":286.5589,"ARG_OF_PERICENTER":91.4577,"MEAN_ANOMALY":268.6703,"EPHEMERIS_TYPE":0,"CLASSIFICATION_TYPE":"U","NORAD_CAT_ID":65172,"ELEMENT_SET_NO":999,"REV_AT_EPOCH":2723,"BSTAR":9.6999e-5,"MEAN_MOTION_DOT":5.6e-7,"MEAN_MOTION_DDOT":0},{"OBJECT_NAME":"HULIANWANG DIGUI-67","OBJECT_ID":"2025-174K","EPOCH":"2026-03-06T19:34:20.008704","MEAN_MOTION":13.24421712,"ECCENTRICITY":0.0001273,"INCLINATION":86.4888,"RA_OF_ASC_NODE":286.5876,"ARG_OF_PERICENTER":89.8337,"MEAN_ANOMALY":270.2943,"EPHEMERIS_TYPE":0,"CLASSIFICATION_TYPE":"U","NORAD_CAT_ID":65173,"ELEMENT_SET_NO":999,"REV_AT_EPOCH":2720,"BSTAR":6.448e-5,"MEAN_MOTION_DOT":4.2e-7,"MEAN_MOTION_DDOT":0},{"OBJECT_NAME":"HULIANWANG DIGUI-68","OBJECT_ID":"2025-178A","EPOCH":"2026-03-06T20:06:45.919008","MEAN_MOTION":13.24423877,"ECCENTRICITY":0.0002024,"INCLINATION":86.4944,"RA_OF_ASC_NODE":48.058,"ARG_OF_PERICENTER":79.2426,"MEAN_ANOMALY":280.8936,"EPHEMERIS_TYPE":0,"CLASSIFICATION_TYPE":"U","NORAD_CAT_ID":65228,"ELEMENT_SET_NO":999,"REV_AT_EPOCH":2676,"BSTAR":2.4121e-5,"MEAN_MOTION_DOT":2.5e-7,"MEAN_MOTION_DDOT":0},{"OBJECT_NAME":"HULIANWANG DIGUI-69","OBJECT_ID":"2025-178B","EPOCH":"2026-03-06T19:56:20.635296","MEAN_MOTION":13.24417665,"ECCENTRICITY":0.0001969,"INCLINATION":86.4964,"RA_OF_ASC_NODE":48.0956,"ARG_OF_PERICENTER":80.7106,"MEAN_ANOMALY":279.4251,"EPHEMERIS_TYPE":0,"CLASSIFICATION_TYPE":"U","NORAD_CAT_ID":65229,"ELEMENT_SET_NO":999,"REV_AT_EPOCH":2676,"BSTAR":2.8105e-5,"MEAN_MOTION_DOT":2.7e-7,"MEAN_MOTION_DDOT":0},{"OBJECT_NAME":"HULIANWANG DIGUI-70","OBJECT_ID":"2025-178C","EPOCH":"2026-03-06T19:45:24.015168","MEAN_MOTION":13.24418696,"ECCENTRICITY":0.0002064,"INCLINATION":86.4903,"RA_OF_ASC_NODE":47.9661,"ARG_OF_PERICENTER":79.154,"MEAN_ANOMALY":280.9826,"EPHEMERIS_TYPE":0,"CLASSIFICATION_TYPE":"U","NORAD_CAT_ID":65230,"ELEMENT_SET_NO":999,"REV_AT_EPOCH":2676,"BSTAR":8.806e-5,"MEAN_MOTION_DOT":5.2e-7,"MEAN_MOTION_DDOT":0},{"OBJECT_NAME":"HULIANWANG DIGUI-71","OBJECT_ID":"2025-178D","EPOCH":"2026-03-06T19:34:29.046144","MEAN_MOTION":13.24419519,"ECCENTRICITY":0.0002025,"INCLINATION":86.4961,"RA_OF_ASC_NODE":48.0838,"ARG_OF_PERICENTER":80.4564,"MEAN_ANOMALY":279.6798,"EPHEMERIS_TYPE":0,"CLASSIFICATION_TYPE":"U","NORAD_CAT_ID":65231,"ELEMENT_SET_NO":999,"REV_AT_EPOCH":2676,"BSTAR":7.8846e-5,"MEAN_MOTION_DOT":4.8e-7,"MEAN_MOTION_DDOT":0},{"OBJECT_NAME":"HULIANWANG DIGUI-72","OBJECT_ID":"2025-178E","EPOCH":"2026-03-06T19:23:32.591040","MEAN_MOTION":13.2441996,"ECCENTRICITY":0.0002025,"INCLINATION":86.4944,"RA_OF_ASC_NODE":48.0441,"ARG_OF_PERICENTER":81.3421,"MEAN_ANOMALY":278.7943,"EPHEMERIS_TYPE":0,"CLASSIFICATION_TYPE":"U","NORAD_CAT_ID":65232,"ELEMENT_SET_NO":999,"REV_AT_EPOCH":2676,"BSTAR":4.9814e-5,"MEAN_MOTION_DOT":3.6e-7,"MEAN_MOTION_DDOT":0},{"OBJECT_NAME":"HULIANWANG DIGUI-73","OBJECT_ID":"2025-187A","EPOCH":"2026-03-06T19:37:51.940128","MEAN_MOTION":13.29342611,"ECCENTRICITY":0.000104,"INCLINATION":50.0038,"RA_OF_ASC_NODE":213.0194,"ARG_OF_PERICENTER":144.1205,"MEAN_ANOMALY":215.9737,"EPHEMERIS_TYPE":0,"CLASSIFICATION_TYPE":"U","NORAD_CAT_ID":65305,"ELEMENT_SET_NO":999,"REV_AT_EPOCH":2608,"BSTAR":8.6668e-5,"MEAN_MOTION_DOT":-8.4e-7,"MEAN_MOTION_DDOT":0},{"OBJECT_NAME":"HULIANWANG DIGUI-74","OBJECT_ID":"2025-187B","EPOCH":"2026-03-06T19:13:46.905312","MEAN_MOTION":13.29343052,"ECCENTRICITY":0.0001039,"INCLINATION":50.0081,"RA_OF_ASC_NODE":212.9991,"ARG_OF_PERICENTER":144.6587,"MEAN_ANOMALY":215.4354,"EPHEMERIS_TYPE":0,"CLASSIFICATION_TYPE":"U","NORAD_CAT_ID":65306,"ELEMENT_SET_NO":999,"REV_AT_EPOCH":2608,"BSTAR":7.7107e-5,"MEAN_MOTION_DOT":-8.8e-7,"MEAN_MOTION_DDOT":0},{"OBJECT_NAME":"HULIANWANG DIGUI-75","OBJECT_ID":"2025-187C","EPOCH":"2026-03-06T20:38:04.313760","MEAN_MOTION":13.29342054,"ECCENTRICITY":0.000103,"INCLINATION":50.0072,"RA_OF_ASC_NODE":212.631,"ARG_OF_PERICENTER":142.6668,"MEAN_ANOMALY":217.4276,"EPHEMERIS_TYPE":0,"CLASSIFICATION_TYPE":"U","NORAD_CAT_ID":65307,"ELEMENT_SET_NO":999,"REV_AT_EPOCH":2609,"BSTAR":8.7652e-5,"MEAN_MOTION_DOT":-8.3e-7,"MEAN_MOTION_DDOT":0},{"OBJECT_NAME":"HULIANWANG DIGUI-76","OBJECT_ID":"2025-187D","EPOCH":"2026-03-06T20:14:17.466144","MEAN_MOTION":13.2933945,"ECCENTRICITY":0.0001022,"INCLINATION":49.9997,"RA_OF_ASC_NODE":213.0831,"ARG_OF_PERICENTER":140.9323,"MEAN_ANOMALY":219.1623,"EPHEMERIS_TYPE":0,"CLASSIFICATION_TYPE":"U","NORAD_CAT_ID":65308,"ELEMENT_SET_NO":999,"REV_AT_EPOCH":2608,"BSTAR":0.00010774,"MEAN_MOTION_DOT":-7.4e-7,"MEAN_MOTION_DDOT":0},{"OBJECT_NAME":"HULIANWANG DIGUI-77","OBJECT_ID":"2025-187E","EPOCH":"2026-03-06T20:02:02.857056","MEAN_MOTION":13.29341321,"ECCENTRICITY":0.0001066,"INCLINATION":50.0031,"RA_OF_ASC_NODE":213.0933,"ARG_OF_PERICENTER":142.0988,"MEAN_ANOMALY":217.996,"EPHEMERIS_TYPE":0,"CLASSIFICATION_TYPE":"U","NORAD_CAT_ID":65309,"ELEMENT_SET_NO":999,"REV_AT_EPOCH":2608,"BSTAR":8.6334e-5,"MEAN_MOTION_DOT":-8.4e-7,"MEAN_MOTION_DDOT":0},{"OBJECT_NAME":"HULIANWANG DIGUI-78","OBJECT_ID":"2025-187F","EPOCH":"2026-03-06T19:01:54.050016","MEAN_MOTION":13.29341698,"ECCENTRICITY":0.0001017,"INCLINATION":50.0097,"RA_OF_ASC_NODE":212.9824,"ARG_OF_PERICENTER":144.4043,"MEAN_ANOMALY":215.6897,"EPHEMERIS_TYPE":0,"CLASSIFICATION_TYPE":"U","NORAD_CAT_ID":65310,"ELEMENT_SET_NO":999,"REV_AT_EPOCH":2608,"BSTAR":6.0171e-5,"MEAN_MOTION_DOT":-9.6e-7,"MEAN_MOTION_DDOT":0},{"OBJECT_NAME":"HULIANWANG DIGUI-79","OBJECT_ID":"2025-187G","EPOCH":"2026-03-06T20:25:52.539456","MEAN_MOTION":13.29343188,"ECCENTRICITY":0.0001024,"INCLINATION":50.0027,"RA_OF_ASC_NODE":213.1712,"ARG_OF_PERICENTER":141.9872,"MEAN_ANOMALY":218.1072,"EPHEMERIS_TYPE":0,"CLASSIFICATION_TYPE":"U","NORAD_CAT_ID":65311,"ELEMENT_SET_NO":999,"REV_AT_EPOCH":2608,"BSTAR":8.3623e-5,"MEAN_MOTION_DOT":-8.5e-7,"MEAN_MOTION_DDOT":0},{"OBJECT_NAME":"HULIANWANG DIGUI-80","OBJECT_ID":"2025-187H","EPOCH":"2026-03-06T19:49:58.513152","MEAN_MOTION":13.2934145,"ECCENTRICITY":0.0001053,"INCLINATION":50.0017,"RA_OF_ASC_NODE":213.028,"ARG_OF_PERICENTER":141.4148,"MEAN_ANOMALY":218.68,"EPHEMERIS_TYPE":0,"CLASSIFICATION_TYPE":"U","NORAD_CAT_ID":65312,"ELEMENT_SET_NO":999,"REV_AT_EPOCH":2608,"BSTAR":0.0001071,"MEAN_MOTION_DOT":-7.4e-7,"MEAN_MOTION_DDOT":0}]
